NORAD_CAT_ID,OBJECT_NAME,OBJECT_TYPE,EPOCH,MEAN_MOTION,ECCENTRICITY,INCLINATION,RA_OF_ASC_NODE,ARG_OF_PERICENTER,MEAN_ANOMALY,BSTAR,MEAN_MOTION_DOT,MEAN_MOTION_DDOT,TLE_LINE0,TLE_LINE1,TLE_LINE2,SEMIMAJOR_AXIS,PERIOD,APOGEE,PERIGEE,DECAYED
56491.0,STARLINK-5842,PAYLOAD,2024-08-09 10:10:06,14.98347793,0.0002142,70.0024,119.9506,258.2425,101.8494,-0.0002418,-2.978e-05,0.0,0 STARLINK-5842,1 56491U 23064AV  24222.42368728 -.00002978  00000-0 -24180-3 0  9998,2 56491  70.0024 119.9506 0002142 258.2425 101.8494 14.98347793 69768,6950.138,96.106,573.492,570.514,0.0
56491.0,STARLINK-5842,PAYLOAD,2024-08-09 19:46:55,14.98331804,0.0002499,70.0014,118.9412,253.3807,106.7078,3.9904e-05,3.83e-06,0.0,0 STARLINK-5842,1 56491U 23064AV  24222.82425159  .00000383  00000-0  39904-4 0  9991,2 56491  70.0014 118.9412 0002499 253.3807 106.7078 14.98331804 70183,6950.187,96.107,573.789,570.315,0.0
56491.0,STARLINK-5842,PAYLOAD,2024-08-09 21:23:03,14.98331336,0.0002481,70.0016,118.7731,252.0678,108.021,2.1857e-05,1.68e-06,0.0,0 STARLINK-5842,1 56491U 23064AV  24222.89101207  .00000168  00000-0  21857-4 0  9992,2 56491  70.0016 118.7731 0002481 252.0678 108.0210 14.98331336 69833,6950.189,96.107,573.778,570.329,0.0
56491.0,STARLINK-5842,PAYLOAD,2024-08-10 02:11:27,14.98340541,0.0002608,70.0008,118.2685,261.3104,98.7759,4.7327e-05,4.72e-06,0.0,0 STARLINK-5842,1 56491U 23064AV  24223.09128480  .00000472  00000-0  47327-4 0  9995,2 56491  70.0008 118.2685 0002608 261.3104  98.7759 14.98340541 70221,6950.16,96.106,573.838,570.213,0.0
56491.0,STARLINK-5842,PAYLOAD,2024-08-10 21:25:03,14.98332414,0.0002403,70.0014,116.2482,249.344,110.7461,0.0001266,1.418e-05,0.0,0 STARLINK-5842,1 56491U 23064AV  24223.89240690  .00001418  00000-0  12660-3 0  9993,2 56491  70.0014 116.2482 0002403 249.3440 110.7461 14.98332414 70341,6950.185,96.107,573.721,570.38,0.0
56491.0,STARLINK-5842,PAYLOAD,2024-08-11 10:14:08,14.98330464,0.0002598,70.0012,114.9004,270.9491,89.1371,-4.009e-05,-5.71e-06,0.0,0 STARLINK-5842,1 56491U 23064AV  24224.42649233 -.00000571  00000-0 -40090-4 0  9999,2 56491  70.0012 114.9004 0002598 270.9491  89.1371 14.98330464 70426,6950.191,96.107,573.862,570.251,0.0
56491.0,STARLINK-5842,PAYLOAD,2024-08-11 23:03:12,14.98336196,0.0002575,70.0016,113.5538,256.0467,104.0406,0.00021046,2.419e-05,0.0,0 STARLINK-5842,1 56491U 23064AV  24224.96056645  .00002419  00000-0  21046-3 0  9997,2 56491  70.0016 113.5538 0002575 256.0467 104.0406 14.98336196 70143,6950.174,96.107,573.828,570.249,0.0
56491.0,STARLINK-5842,PAYLOAD,2024-08-12 02:15:28,14.98338637,0.0002664,70.0019,113.218,255.3065,104.7799,0.00025459,2.947e-05,0.0,0 STARLINK-5842,1 56491U 23064AV  24225.09408449  .00002947  00000-0  25459-3 0  9993,2 56491  70.0019 113.2180 0002664 255.3065 104.7799 14.98338637 70527,6950.166,96.106,573.883,570.18,0.0
56491.0,STARLINK-5842,PAYLOAD,2024-08-12 10:16:09,14.98339141,0.0002488,70.0027,112.3763,270.1278,89.9596,0.0002007,2.303e-05,0.0,0 STARLINK-5842,1 56491U 23064AV  24225.42788379  .00002303  00000-0  20070-3 0  9993,2 56491  70.0027 112.3763 0002488 270.1278  89.9596 14.98339141 70214,6950.165,96.106,573.759,570.3,0.0
56491.0,STARLINK-5842,PAYLOAD,2024-08-12 23:05:13,14.98349791,0.0002646,70.0013,111.0278,266.3429,93.7428,0.00038154,4.465e-05,0.0,0 STARLINK-5842,1 56491U 23064AV  24225.96195659  .00004465  00000-0  38154-3 0  9998,2 56491  70.0013 111.0278 0002646 266.3429  93.7428 14.98349791 70294,6950.132,96.106,573.836,570.158,0.0
56491.0,STARLINK-5842,PAYLOAD,2024-08-13 02:17:29,14.98353691,0.0002709,70.0017,110.6913,266.4104,93.6745,0.00057752,6.809e-05,0.0,0 STARLINK-5842,1 56491U 23064AV  24226.09547566  .00006809  00000-0  57752-3 0  9990,2 56491  70.0017 110.6913 0002709 266.4104  93.6745 14.98353691 70677,6950.12,96.105,573.867,570.102,0.0
56491.0,STARLINK-5842,PAYLOAD,2024-08-13 23:07:17,14.98294943,0.0002531,70.0015,108.5057,268.3096,91.7773,-0.00062747,-7.565e-05,0.0,0 STARLINK-5842,1 56491U 23064AV  24226.96339133 -.00007565  00000-0 -62747-3 0  9997,2 56491  70.0015 108.5057 0002531 268.3096  91.7773 14.98294943 70443,6950.301,96.109,573.925,570.407,0.0
56491.0,STARLINK-5842,PAYLOAD,2024-08-14 02:19:33,14.98295282,0.0002473,70.0037,108.1676,273.5174,86.5702,-0.00048135,-5.826e-05,0.0,0 STARLINK-5842,1 56491U 23064AV  24227.09691501 -.00005826  00000-0 -48135-3 0  9995,2 56491  70.0037 108.1676 0002473 273.5174  86.5702 14.98295282 70823,6950.3,96.109,573.884,570.446,0.0
56491.0,STARLINK-5842,PAYLOAD,2024-08-14 19:57:01,14.98326807,0.0002974,70.0017,106.3153,278.5569,81.5253,0.00047043,5.524e-05,0.0,0 STARLINK-5842,1 56491U 23064AV  24227.83126734  .00005524  00000-0  47043-3 0  9998,2 56491  70.0017 106.3153 0002974 278.5569  81.5253 14.98326807 70936,6950.203,96.107,574.135,570.001,0.0
56491.0,STARLINK-5842,PAYLOAD,2024-08-14 21:33:09,14.983253,0.000303,70.0019,106.1469,284.2878,75.7945,0.00075778,8.959e-05,0.0,0 STARLINK-5842,1 56491U 23064AV  24227.89803060  .00008959  00000-0  75778-3 0  9999,2 56491  70.0019 106.1469 0003030 284.2878  75.7945 14.98325300 70588,6950.207,96.107,574.178,569.967,0.0
56491.0,STARLINK-5842,PAYLOAD,2024-08-15 02:21:33,14.98356447,0.0003259,70.0009,105.6424,276.7423,83.3365,0.0016073,0.00019151,0.0,0 STARLINK-5842,1 56491U 23064AV  24228.09830851  .00019151  00000-0  16073-2 0  9998,2 56491  70.0009 105.6424 0003259 276.7423  83.3365 14.98356447 70977,6950.111,96.105,574.241,569.711,0.0
56491.0,STARLINK-5842,PAYLOAD,2024-08-15 08:46:05,14.98361022,0.0003169,70.0013,104.9689,276.9803,83.0995,0.0013743,0.00016357,0.0,0 STARLINK-5842,1 56491U 23064AV  24228.36534491  .00016357  00000-0  13743-2 0  9995,2 56491  70.0013 104.9689 0003169 276.9803  83.0995 14.98361022 70657,6950.097,96.105,574.164,569.759,0.0
56491.0,STARLINK-5842,PAYLOAD,2024-08-15 21:35:09,14.98357512,0.0003187,70.0013,103.6229,276.4508,83.6288,0.00055077,6.49e-05,0.0,0 STARLINK-5842,1 56491U 23064AV  24228.89941716  .00006490  00000-0  55077-3 0  9999,2 56491  70.0013 103.6229 0003187 276.4508  83.6288 14.98357512 71099,6950.108,96.105,574.188,569.758,0.0
56491.0,STARLINK-5842,PAYLOAD,2024-08-16 00:47:25,14.9836174,0.0003173,70.0013,103.2863,276.6919,83.3879,0.00071337,8.436e-05,0.0,0 STARLINK-5842,1 56491U 23064AV  24229.03293434  .00008436  00000-0  71337-3 0  9992,2 56491  70.0013 103.2863 0003173 276.6919  83.3879 14.98361740 70755,6950.095,96.105,574.165,569.754,0.0
56491.0,STARLINK-5842,PAYLOAD,2024-08-16 21:37:09,14.98349479,0.0002788,70.0023,101.1,276.6148,83.4694,0.00057315,6.756e-05,0.0,0 STARLINK-5842,1 56491U 23064AV  24229.90080848  .00006756  00000-0  57315-3 0  9994,2 56491  70.0023 101.1000 0002788 276.6148  83.4694 14.98349479 70886,6950.133,96.106,573.935,570.06,0.0
56491.0,STARLINK-5842,PAYLOAD,2024-08-17 02:25:33,14.98348146,0.0002898,70.0012,100.5928,273.7774,86.3054,8.3701e-05,9.06e-06,0.0,0 STARLINK-5842,1 56491U 23064AV  24230.10108721  .00000906  00000-0  83701-4 0  9999,2 56491  70.0012 100.5928 0002898 273.7774  86.3054 14.98348146 71277,6950.137,96.106,574.016,569.988,0.0
56491.0,STARLINK-5842,PAYLOAD,2024-08-17 21:39:10,14.98332437,0.0002834,70.0018,98.5704,270.4843,89.5992,8.4674e-06,8e-08,0.0,0 STARLINK-5842,1 56491U 23064AV  24230.90221051  .00000008  00000-0  84674-5 0  9993,2 56491  70.0018  98.5704 0002834 270.4843  89.5992 14.98332437 71038,6950.185,96.107,574.02,570.081,0.0
56491.0,STARLINK-5842,PAYLOAD,2024-08-18 00:51:27,14.98328844,0.000293,70.0004,98.2329,271.0744,89.0079,3.0494e-05,2.71e-06,0.0,0 STARLINK-5842,1 56491U 23064AV  24231.03573580  .00000271  00000-0  30494-4 0  9997,2 56491  70.0004  98.2329 0002930 271.0744  89.0079 14.98328844 71417,6950.196,96.107,574.098,570.025,0.0
56491.0,STARLINK-5842,PAYLOAD,2024-08-18 20:05:00,14.9837022,0.0003128,69.9997,96.2164,268.8494,91.2307,0.0004383,5.146e-05,0.0,0 STARLINK-5842,1 56491U 23064AV  24231.83681676  .00005146  00000-0  43830-3 0  9994,2 56491  69.9997  96.2164 0003128 268.8494  91.2307 14.98370220 71533,6950.069,96.104,574.107,569.76,0.0
56491.0,STARLINK-5842,PAYLOAD,2024-08-18 21:41:11,14.9832976,0.0003033,69.9994,96.0484,259.1304,100.9513,-3.6393e-05,-5.27e-06,0.0,0 STARLINK-5842,1 56491U 23064AV  24231.90360952 -.00000527  00000-0 -36393-4 0  9990,2 56491  69.9994  96.0484 0003033 259.1304 100.9513 14.98329760 71182,6950.194,96.107,574.167,569.951,0.0
56491.0,STARLINK-5842,PAYLOAD,2024-08-19 00:53:26,14.98345925,0.0003161,69.9992,95.7103,271.4139,88.6657,0.00013434,1.511e-05,0.0,0 STARLINK-5842,1 56491U 23064AV  24232.03711611  .00001511  00000-0  13434-3 0  9999,2 56491  69.9992  95.7103 0003161 271.4139  88.6657 14.98345925 71563,6950.144,96.106,574.206,569.812,0.0
56491.0,STARLINK-5842,PAYLOAD,2024-08-19 13:42:32,14.98328843,0.0003041,69.9987,94.3631,268.9055,91.1756,0.00013079,1.468e-05,0.0,0 STARLINK-5842,1 56491U 23064AV  24232.57120710  .00001468  00000-0  13079-3 0  9998,2 56491  69.9987  94.3631 0003041 268.9055  91.1756 14.98328843 71641,6950.196,96.107,574.175,569.948,0.0
56491.0,STARLINK-5842,PAYLOAD,2024-08-20 00:55:29,14.98328697,0.0003187,69.9989,93.1856,270.7536,89.3258,2.5828e-05,2.15e-06,0.0,0 STARLINK-5842,1 56491U 23064AV  24233.03853016  .00000215  00000-0  25828-4 0  9997,2 56491  69.9989  93.1856 0003187 270.7536  89.3258 14.98328697 71356,6950.197,96.107,574.277,569.847,0.0
56491.0,STARLINK-5842,PAYLOAD,2024-08-20 20:09:05,14.98340275,0.0002816,69.999,91.166,264.9769,95.1068,2.9452e-05,2.59e-06,0.0,0 STARLINK-5842,1 56491U 23064AV  24233.83964185  .00000259  00000-0  29452-4 0  9990,2 56491  69.9990  91.1660 0002816 264.9769  95.1068 14.98340275 71833,6950.161,96.106,573.983,570.069,0.0
56491.0,STARLINK-5842,PAYLOAD,2024-08-21 15:22:42,14.98324232,0.0002947,69.9995,89.1459,271.3615,88.7207,0.00011164,1.239e-05,0.0,0 STARLINK-5842,1 56491U 23064AV  24234.64077113  .00001239  00000-0  11164-3 0  9995,2 56491  69.9995  89.1459 0002947 271.3615  88.7207 14.98324232 71599,6950.211,96.107,574.124,570.028,0.0
